LINGQIAO VIDEO A        
1 40959U 15057B   26137.20615110  .00000162  00000+0  29576-4 0  9991
2 40959  97.6613 133.5387 0017314  15.5691 344.6049 14.77344687570838
LINGQIAO VIDEO B        
1 40960U 15057C   26137.18504574  .00000337  00000+0  53978-4 0  9998
2 40960  97.6580 134.6904 0017481  15.7294 344.4456 14.77450752570871
JILIN-1                 
1 40961U 15057D   26137.14464377  .00000509  00000+0  76927-4 0  9991
2 40961  97.6511 138.0547 0017185  10.1556 349.9999 14.78104187571027
FOX-1A (AO-85)          
1 40967U 15058D   26136.95964132  .00002238  00000+0  20908-3 0  9998
2 40967  64.7768  16.0156 0129128  68.8392 292.6462 14.90773374108919
SINOD-D 1               
1 40968U 15058E   26136.92204303  .00003179  00000+0  26236-3 0  9998
2 40968  64.7762 356.8045 0117636  65.6323 295.7017 14.95647045111987
ELEKTRO-L 2             
1 41105U 15074A   26137.16789829 -.00000111  00000+0  00000+0 0  9999
2 41105   6.6158  70.8948 0001502 257.5246 312.3954  1.00271972 38191
DAMPE                   
1 41173U 15078A   26137.18305372  .00001016  00000+0  36799-4 0  9990
2 41173  97.4561 142.4993 0011742 177.5549 182.5751 15.30701746579807
ORBCOMM FM114           
1 41179U 15081A   26137.02203102  .00000155  00000+0  69051-4 0  9991
2 41179  47.0031 149.3447 0001537  29.6190 330.4783 14.58820034553202
ORBCOMM FM110           
1 41182U 15081D   26136.73677681  .00000329  00000+0  10588-3 0  9992
2 41182  47.0003 150.1430 0004047 286.5861  73.4580 14.58825709553039
ORBCOMM FM112           
1 41184U 15081F   26137.05011941  .00000315  00000+0  10292-3 0  9998
2 41184  47.0016  57.4790 0002507  50.1517 309.9589 14.58852292554400
ORBCOMM FM113           
1 41185U 15081G   26137.16287807  .00000187  00000+0  75839-4 0  9993
2 41185  47.0014  57.3071 0001153  40.1497 319.9474 14.58820769554400
ORBCOMM FM108           
1 41187U 15081J   26136.85150324  .00000344  00000+0  10905-3 0  9990
2 41187  47.0059 330.3461 0002073  50.3193 309.7875 14.58823112555505
ORBCOMM FM117           
1 41188U 15081K   26136.74846558  .00000337  00000+0  10773-3 0  9995
2 41188  47.0023 329.4766 0002504  58.5494 301.5636 14.58820897555532
ORBCOMM FM116           
1 41189U 15081L   26137.14008155  .00000268  00000+0  92980-4 0  9998
2 41189  47.0026  57.4128 0002257 289.3167  70.7475 14.58830168554405
HORYU-4                 
1 41340U 16012D   26137.16665037  .00135616  00000+0  71367-3 0  9993
2 41340  30.9884 303.6197 0004882  62.1428 297.9724 15.79166329565881
ZIYUAN 3-02 (ZY 3-02)   
1 41556U 16033A   26137.21044402  .00004424  00000+0  19935-3 0  9993
2 41556  97.3841 213.5775 0013457  49.3672 310.8732 15.21479459553279
CARTOSAT-2C             
1 41599U 16040A   26137.17046850  .00005045  00000+0  24259-3 0  9997
2 41599  97.4507 197.5697 0008563 237.6072 122.4334 15.19226621549007
LAPAN-A3                
1 41603U 16040E   26137.25124692  .00002326  00000+0  75409-4 0  9996
2 41603  97.1487 134.4200 0012021 121.2052 239.0371 15.32896348550076
GAOFEN-3                
1 41727U 16049A   26137.21070596 -.00000014  00000+0  88438-5 0  9991
2 41727  98.4015 145.4636 0000940  83.0582 277.0715 14.42211072514180
CAS-2T & KS-1Q          
1 41847U 16066G   26137.21024441  .00000630  00000+0  98254-4 0  9990
2 41847  98.3826 213.2976 0341257 223.4075 133.9782 14.44596277500329
YUNHAI-1 01             
1 41857U 16068A   26137.15819280  .00000198  00000+0  88833-4 0  9990
2 41857  98.5839 148.4529 0006429 118.5685 241.6147 14.32716128497388
RESOURCESAT-2A          
1 41877U 16074A   26137.17292480  .00000253  00000+0  13568-3 0  9992
2 41877  98.7537 210.9289 0002742 143.9372 216.1990 14.21606705489891
TANSAT                  
1 41898U 16081A   26137.20157249  .00000293  00000+0  71461-4 0  9991
2 41898  98.5361 136.5445 0021628  47.3146 312.9870 14.59922817500100
JILIN-1 03              
1 41914U 17002B   26137.18487240  .00009030  00000+0  22254-3 0  9991
2 41914  97.1951 144.7249 0003606 289.8470  70.2388 15.40781167517086
CARTOSAT-2D             
1 41948U 17008A   26137.13712604  .00004309  00000+0  20765-3 0  9993
2 41948  97.4131 197.0174 0004441   6.5323 353.5969 15.19244402512868
