OBJECT_NAME,OBJECT_ID,EPOCH,MEAN_MOTION,ECCENTRICITY,INCLINATION,RA_OF_ASC_NODE,ARG_OF_PERICENTER,MEAN_ANOMALY,EPHEMERIS_TYPE,CLASSIFICATION_TYPE,NORAD_CAT_ID,ELEMENT_SET_NO,REV_AT_EPOCH,BSTAR,MEAN_MOTION_DOT,MEAN_MOTION_DDOT
LINGQIAO VIDEO A,2015-057B,2026-05-17T04:56:51.455040,14.77344687,.0017314,97.6613,133.5387,15.5691,344.6049,0,U,40959,999,57083,.29576E-4,.162E-5,0
LINGQIAO VIDEO B,2015-057C,2026-05-17T04:26:27.951936,14.77450752,.0017481,97.6580,134.6904,15.7294,344.4456,0,U,40960,999,57087,.53978E-4,.337E-5,0
JILIN-1,2015-057D,2026-05-17T03:28:17.221728,14.78104187,.0017185,97.6511,138.0547,10.1556,349.9999,0,U,40961,999,57102,.76927E-4,.509E-5,0
FOX-1A (AO-85),2015-058D,2026-05-16T23:01:53.010048,14.90773374,.0129128,64.7768,16.0156,68.8392,292.6462,0,U,40967,999,10891,.20908E-3,.2238E-4,0
SINOD-D 1,2015-058E,2026-05-16T22:07:44.517792,14.95647045,.0117636,64.7762,356.8045,65.6323,295.7017,0,U,40968,999,11198,.26236E-3,.3179E-4,0
ELEKTRO-L 2,2015-074A,2026-05-17T04:01:46.412256,1.00271972,.0001502,6.6158,70.8948,257.5246,312.3954,0,U,41105,999,3819,0,-.111E-5,0
DAMPE,2015-078A,2026-05-17T04:23:35.841408,15.30701746,.0011742,97.4561,142.4993,177.5549,182.5751,0,U,41173,999,57980,.36799E-4,.1016E-4,0
ORBCOMM FM114,2015-081A,2026-05-17T00:31:43.480128,14.58820034,.0001537,47.0031,149.3447,29.6190,330.4783,0,U,41179,999,55320,.69051E-4,.155E-5,0
ORBCOMM FM110,2015-081D,2026-05-16T17:40:57.516384,14.58825709,.0004047,47.0003,150.1430,286.5861,73.4580,0,U,41182,999,55303,.10588103E-3,.329E-5,0
ORBCOMM FM112,2015-081F,2026-05-17T01:12:10.317024,14.58852292,.0002507,47.0016,57.4790,50.1517,309.9589,0,U,41184,999,55440,.10292E-3,.315E-5,0
ORBCOMM FM113,2015-081G,2026-05-17T03:54:32.665248,14.58820769,.0001153,47.0014,57.3071,40.1497,319.9474,0,U,41185,999,55440,.75839E-4,.187E-5,0
ORBCOMM FM108,2015-081J,2026-05-16T20:26:09.879936,14.58823112,.00020736,47.0059,330.3461,50.3193,309.7875,0,U,41187,999,55550,.10905177E-3,.344E-5,0
ORBCOMM FM117,2015-081K,2026-05-16T17:57:47.426112,14.58820897,.00025041,47.0023,329.4766,58.5494,301.5636,0,U,41188,999,55553,.10772584E-3,.337E-5,0
ORBCOMM FM116,2015-081L,2026-05-17T03:21:43.045920,14.58830168,.0002257,47.0026,57.4128,289.3167,70.7475,0,U,41189,999,55440,.9298E-4,.268E-5,0
HORYU-4,2016-012D,2026-05-17T03:59:58.591968,15.79166329,.0004882,30.9884,303.6197,62.1428,297.9724,0,U,41340,999,56588,.71367E-3,.135616E-2,0
ZIYUAN 3-02 (ZY 3-02),2016-033A,2026-05-17T05:03:02.363328,15.21479459,.0013457,97.3841,213.5775,49.3672,310.8732,0,U,41556,999,55327,.19935E-3,.4424E-4,0
CARTOSAT-2C,2016-040A,2026-05-17T04:05:28.478400,15.19226621,.0008563,97.4507,197.5697,237.6072,122.4334,0,U,41599,999,54900,.24259E-3,.5045E-4,0
LAPAN-A3,2016-040E,2026-05-17T06:01:47.733888,15.32896348,.0012021,97.1487,134.4200,121.2052,239.0371,0,U,41603,999,55007,.75409E-4,.2326E-4,0
GAOFEN-3,2016-049A,2026-05-17T05:03:24.994944,14.42211072,.000094,98.4015,145.4636,83.0582,277.0715,0,U,41727,999,51418,.88438E-5,-.14E-6,0
CAS-2T & KS-1Q,2016-066G,2026-05-17T05:02:45.117024,14.44596277,.0341257,98.3826,213.2976,223.4075,133.9782,0,U,41847,999,50032,.98254E-4,.63E-5,0
YUNHAI-1 01,2016-068A,2026-05-17T03:47:47.857920,14.32716128,.0006429,98.5839,148.4529,118.5685,241.6147,0,U,41857,999,49738,.88833E-4,.198E-5,0
RESOURCESAT-2A,2016-074A,2026-05-17T04:09:00.702720,14.21606705,.0002742,98.7537,210.9289,143.9372,216.1990,0,U,41877,999,48989,.13568E-3,.253E-5,0
TANSAT,2016-081A,2026-05-17T04:50:15.863136,14.59922817,.0021628,98.5361,136.5445,47.3146,312.9870,0,U,41898,999,50010,.71461E-4,.293E-5,0
JILIN-1 03,2017-002B,2026-05-17T04:26:12.975360,15.40781167,.0003606,97.1951,144.7249,289.8470,70.2388,0,U,41914,999,51708,.22254E-3,.903E-4,0
CARTOSAT-2D,2017-008A,2026-05-17T03:17:27.689856,15.19244402,.0004441,97.4131,197.0174,6.5323,353.5969,0,U,41948,999,51286,.20765E-3,.4309E-4,0
